[
  {
    "OBJECT_NAME": "STARLINK-1112",
    "OBJECT_ID": "20001M",
    "EPOCH": "2025-11-10T20:54:59.258016",
    "MEAN_MOTION": 15.55687945,
    "ECCENTRICITY": 0.0003637,
    "INCLINATION": 53.0489,
    "RA_OF_ASC_NODE": 114.1821,
    "ARG_OF_PERICENTER": 178.7238,
    "MEAN_ANOMALY": 181.3782,
    "EPHEMERIS_TYPE": 0,
    "CLASSIFICATION_TYPE": "U",
    "NORAD_CAT_ID": 44925,
    "ELEMENT_SET_NO": 999,
    "REV_AT_EPOCH": 32258,
    "BSTAR": 0.0007655499999999999,
    "MEAN_MOTION_DOT": 0.00053477,
    "MEAN_MOTION_DDOT": 0.0,
    "TLE_LINE1": "1 44925U 20001M   25314.87151919  .00053477  00000+0  76555-3 0  9999",
    "TLE_LINE2": "2 44925  53.0489 114.1821 0003637 178.7238 181.3782 15.55687945322583",
    "COMMENT": "Grouped by shell and plane from TLE"
  },
  {
    "OBJECT_NAME": "STARLINK-1221",
    "OBJECT_ID": "20012BB",
    "EPOCH": "2025-11-10T20:30:23.236704",
    "MEAN_MOTION": 15.37107852,
    "ECCENTRICITY": 0.000312,
    "INCLINATION": 53.0665,
    "RA_OF_ASC_NODE": 110.7104,
    "ARG_OF_PERICENTER": 19.8141,
    "MEAN_ANOMALY": 340.2982,
    "EPHEMERIS_TYPE": 0,
    "CLASSIFICATION_TYPE": "U",
    "NORAD_CAT_ID": 45227,
    "ELEMENT_SET_NO": 999,
    "REV_AT_EPOCH": 31840,
    "BSTAR": 0.00059324,
    "MEAN_MOTION_DOT": 0.00021539,
    "MEAN_MOTION_DDOT": 0.0,
    "TLE_LINE1": "1 45227U 20012BB  25314.85443561  .00021539  00000+0  59324-3 0  9991",
    "TLE_LINE2": "2 45227  53.0665 110.7104 0003120  19.8141 340.2982 15.37107852318404",
    "COMMENT": "Grouped by shell and plane from TLE"
  },
  {
    "OBJECT_NAME": "STARLINK-1726",
    "OBJECT_ID": "20062AP",
    "EPOCH": "2025-11-11T08:00:03.000384",
    "MEAN_MOTION": 15.443207,
    "ECCENTRICITY": 0.0010287,
    "INCLINATION": 53.0521,
    "RA_OF_ASC_NODE": 119.9623,
    "ARG_OF_PERICENTER": 146.1423,
    "MEAN_ANOMALY": 53.6786,
    "EPHEMERIS_TYPE": 0,
    "CLASSIFICATION_TYPE": "U",
    "NORAD_CAT_ID": 46362,
    "ELEMENT_SET_NO": 999,
    "REV_AT_EPOCH": 579,
    "BSTAR": 0.0052357,
    "MEAN_MOTION_DOT": 0.00253209,
    "MEAN_MOTION_DDOT": 0.0,
    "TLE_LINE1": "1 46362U 20062AP  25315.33336806  .00253209  00000+0  52357-2 0  9993",
    "TLE_LINE2": "2 46362  53.0521 119.9623 0010287 146.1423  53.6786 15.44320700  5791",
    "COMMENT": "Grouped by shell and plane from TLE"
  },
  {
    "OBJECT_NAME": "STARLINK-1742",
    "OBJECT_ID": "20062BD",
    "EPOCH": "2025-11-11T08:00:03.000384",
    "MEAN_MOTION": 15.43181337,
    "ECCENTRICITY": 0.001036,
    "INCLINATION": 53.038,
    "RA_OF_ASC_NODE": 111.8475,
    "ARG_OF_PERICENTER": 128.5845,
    "MEAN_ANOMALY": 350.7148,
    "EPHEMERIS_TYPE": 0,
    "CLASSIFICATION_TYPE": "U",
    "NORAD_CAT_ID": 46376,
    "ELEMENT_SET_NO": 999,
    "REV_AT_EPOCH": 584,
    "BSTAR": 0.0045189,
    "MEAN_MOTION_DOT": 0.00209035,
    "MEAN_MOTION_DDOT": 0.0,
    "TLE_LINE1": "1 46376U 20062BD  25315.33336806  .00209035  00000+0  45189-2 0  9991",
    "TLE_LINE2": "2 46376  53.0380 111.8475 0010360 128.5845 350.7148 15.43181337  5848",
    "COMMENT": "Grouped by shell and plane from TLE"
  },
  {
    "OBJECT_NAME": "STARLINK-1848",
    "OBJECT_ID": "20074B",
    "EPOCH": "2025-11-11T08:00:03.000384",
    "MEAN_MOTION": 15.49534577,
    "ECCENTRICITY": 0.0009605,
    "INCLINATION": 53.0494,
    "RA_OF_ASC_NODE": 117.9088,
    "ARG_OF_PERICENTER": 151.296,
    "MEAN_ANOMALY": 243.7859,
    "EPHEMERIS_TYPE": 0,
    "CLASSIFICATION_TYPE": "U",
    "NORAD_CAT_ID": 46740,
    "ELEMENT_SET_NO": 999,
    "REV_AT_EPOCH": 572,
    "BSTAR": 0.0041744,
    "MEAN_MOTION_DOT": 0.00241264,
    "MEAN_MOTION_DDOT": 0.0,
    "TLE_LINE1": "1 46740U 20074B   25315.33336806  .00241264  00000+0  41744-2 0  9992",
    "TLE_LINE2": "2 46740  53.0494 117.9088 0009605 151.2960 243.7859 15.49534577  5728",
    "COMMENT": "Grouped by shell and plane from TLE"
  },
  {
    "OBJECT_NAME": "STARLINK-1882",
    "OBJECT_ID": "20074AX",
    "EPOCH": "2025-11-11T04:23:53.845440",
    "MEAN_MOTION": 15.29980138,
    "ECCENTRICITY": 0.0002088,
    "INCLINATION": 53.0591,
    "RA_OF_ASC_NODE": 119.135,
    "ARG_OF_PERICENTER": 201.6729,
    "MEAN_ANOMALY": 158.4182,
    "EPHEMERIS_TYPE": 0,
    "CLASSIFICATION_TYPE": "U",
    "NORAD_CAT_ID": 46784,
    "ELEMENT_SET_NO": 999,
    "REV_AT_EPOCH": 27901,
    "BSTAR": 0.0034235,
    "MEAN_MOTION_DOT": 0.00101744,
    "MEAN_MOTION_DDOT": 0.0,
    "TLE_LINE1": "1 46784U 20074AX  25315.18326210  .00101744  00000+0  34235-2 0  9996",
    "TLE_LINE2": "2 46784  53.0591 119.1350 0002088 201.6729 158.4182 15.29980138279013",
    "COMMENT": "Grouped by shell and plane from TLE"
  },
  {
    "OBJECT_NAME": "STARLINK-30241",
    "OBJECT_ID": "23096J",
    "EPOCH": "2025-11-11T08:00:03.000384",
    "MEAN_MOTION": 15.38027797,
    "ECCENTRICITY": 0.0029199,
    "INCLINATION": 42.9896,
    "RA_OF_ASC_NODE": 115.3822,
    "ARG_OF_PERICENTER": 297.673,
    "MEAN_ANOMALY": 141.5266,
    "EPHEMERIS_TYPE": 0,
    "CLASSIFICATION_TYPE": "U",
    "NORAD_CAT_ID": 57298,
    "ELEMENT_SET_NO": 999,
    "REV_AT_EPOCH": 587,
    "BSTAR": 0.006043300000000001,
    "MEAN_MOTION_DOT": 0.0024155,
    "MEAN_MOTION_DDOT": 0.0,
    "TLE_LINE1": "1 57298U 23096J   25315.33336806  .00241550  00000+0  60433-2 0  9993",
    "TLE_LINE2": "2 57298  42.9896 115.3822 0029199 297.6730 141.5266 15.38027797  5871",
    "COMMENT": "Grouped by shell and plane from TLE"
  },
  {
    "OBJECT_NAME": "STARLINK-30177",
    "OBJECT_ID": "23096R",
    "EPOCH": "2025-11-11T08:00:03.000384",
    "MEAN_MOTION": 15.34135814,
    "ECCENTRICITY": 0.0028315,
    "INCLINATION": 42.9935,
    "RA_OF_ASC_NODE": 119.8646,
    "ARG_OF_PERICENTER": 290.2393,
    "MEAN_ANOMALY": 79.5393,
    "EPHEMERIS_TYPE": 0,
    "CLASSIFICATION_TYPE": "U",
    "NORAD_CAT_ID": 57305,
    "ELEMENT_SET_NO": 999,
    "REV_AT_EPOCH": 581,
    "BSTAR": 0.0053208,
    "MEAN_MOTION_DOT": 0.00186011,
    "MEAN_MOTION_DDOT": 0.0,
    "TLE_LINE1": "1 57305U 23096R   25315.33336806  .00186011  00000+0  53208-2 0  9994",
    "TLE_LINE2": "2 57305  42.9935 119.8646 0028315 290.2393  79.5393 15.34135814  5811",
    "COMMENT": "Grouped by shell and plane from TLE"
  },
  {
    "OBJECT_NAME": "STARLINK-30200",
    "OBJECT_ID": "23096S",
    "EPOCH": "2025-11-11T08:00:03.000384",
    "MEAN_MOTION": 15.36495861,
    "ECCENTRICITY": 0.0028939,
    "INCLINATION": 42.987,
    "RA_OF_ASC_NODE": 115.9886,
    "ARG_OF_PERICENTER": 296.2628,
    "MEAN_ANOMALY": 255.3711,
    "EPHEMERIS_TYPE": 0,
    "CLASSIFICATION_TYPE": "U",
    "NORAD_CAT_ID": 57306,
    "ELEMENT_SET_NO": 999,
    "REV_AT_EPOCH": 582,
    "BSTAR": 0.0055462,
    "MEAN_MOTION_DOT": 0.00209968,
    "MEAN_MOTION_DDOT": 0.0,
    "TLE_LINE1": "1 57306U 23096S   25315.33336806  .00209968  00000+0  55462-2 0  9996",
    "TLE_LINE2": "2 57306  42.9870 115.9886 0028939 296.2628 255.3711 15.36495861  5824",
    "COMMENT": "Grouped by shell and plane from TLE"
  },
  {
    "OBJECT_NAME": "STARLINK-30285",
    "OBJECT_ID": "23141A",
    "EPOCH": "2025-11-10T20:32:32.682048",
    "MEAN_MOTION": 15.30185504,
    "ECCENTRICITY": 0.0001682,
    "INCLINATION": 53.1612,
    "RA_OF_ASC_NODE": 116.1112,
    "ARG_OF_PERICENTER": 96.4399,
    "MEAN_ANOMALY": 263.6794,
    "EPHEMERIS_TYPE": 0,
    "CLASSIFICATION_TYPE": "U",
    "NORAD_CAT_ID": 57840,
    "ELEMENT_SET_NO": 999,
    "REV_AT_EPOCH": 12213,
    "BSTAR": 0.0,
    "MEAN_MOTION_DOT": -3.83e-06,
    "MEAN_MOTION_DDOT": 0.0,
    "TLE_LINE1": "1 57840U 23141A   25314.85593382 -.00000383  00000+0 -80130-6 0  9996",
    "TLE_LINE2": "2 57840  53.1612 116.1112 0001682  96.4399 263.6794 15.30185504122132",
    "COMMENT": "Grouped by shell and plane from TLE"
  },
  {
    "OBJECT_NAME": "STARLINK-30410",
    "OBJECT_ID": "23141B",
    "EPOCH": "2025-11-10T17:42:37.755936",
    "MEAN_MOTION": 15.30194934,
    "ECCENTRICITY": 8.1e-05,
    "INCLINATION": 53.1575,
    "RA_OF_ASC_NODE": 116.6105,
    "ARG_OF_PERICENTER": 72.3337,
    "MEAN_ANOMALY": 287.7752,
    "EPHEMERIS_TYPE": 0,
    "CLASSIFICATION_TYPE": "U",
    "NORAD_CAT_ID": 57841,
    "ELEMENT_SET_NO": 999,
    "REV_AT_EPOCH": 12211,
    "BSTAR": 7.1623e-05,
    "MEAN_MOTION_DOT": 1.763e-05,
    "MEAN_MOTION_DDOT": 0.0,
    "TLE_LINE1": "1 57841U 23141B   25314.73793699  .00001763  00000+0  71623-4 0  9993",
    "TLE_LINE2": "2 57841  53.1575 116.6105 0000810  72.3337 287.7752 15.30194934122111",
    "COMMENT": "Grouped by shell and plane from TLE"
  },
  {
    "OBJECT_NAME": "STARLINK-30435",
    "OBJECT_ID": "23141C",
    "EPOCH": "2025-11-10T17:47:11.466816",
    "MEAN_MOTION": 15.30197877,
    "ECCENTRICITY": 9e-05,
    "INCLINATION": 53.1605,
    "RA_OF_ASC_NODE": 116.659,
    "ARG_OF_PERICENTER": 79.1781,
    "MEAN_ANOMALY": 280.9321,
    "EPHEMERIS_TYPE": 0,
    "CLASSIFICATION_TYPE": "U",
    "NORAD_CAT_ID": 57842,
    "ELEMENT_SET_NO": 999,
    "REV_AT_EPOCH": 12211,
    "BSTAR": 5.6113e-05,
    "MEAN_MOTION_DOT": 1.303e-05,
    "MEAN_MOTION_DDOT": 0.0,
    "TLE_LINE1": "1 57842U 23141C   25314.74110494  .00001303  00000+0  56113-4 0  9998",
    "TLE_LINE2": "2 57842  53.1605 116.6590 0000900  79.1781 280.9321 15.30197877122118",
    "COMMENT": "Grouped by shell and plane from TLE"
  },
  {
    "OBJECT_NAME": "STARLINK-30423",
    "OBJECT_ID": "23141D",
    "EPOCH": "2025-11-10T17:53:15.589248",
    "MEAN_MOTION": 15.30201757,
    "ECCENTRICITY": 7.33e-05,
    "INCLINATION": 53.1603,
    "RA_OF_ASC_NODE": 116.6434,
    "ARG_OF_PERICENTER": 56.9769,
    "MEAN_ANOMALY": 303.1303,
    "EPHEMERIS_TYPE": 0,
    "CLASSIFICATION_TYPE": "U",
    "NORAD_CAT_ID": 57843,
    "ELEMENT_SET_NO": 999,
    "REV_AT_EPOCH": 12211,
    "BSTAR": 4.0955000000000003e-05,
    "MEAN_MOTION_DOT": 8.54e-06,
    "MEAN_MOTION_DDOT": 0.0,
    "TLE_LINE1": "1 57843U 23141D   25314.74531932  .00000854  00000+0  40955-4 0  9990",
    "TLE_LINE2": "2 57843  53.1603 116.6434 0000733  56.9769 303.1303 15.30201757122118",
    "COMMENT": "Grouped by shell and plane from TLE"
  }
]